OBJECT_NAME,OBJECT_ID,EPOCH,MEAN_MOTION,ECCENTRICITY,INCLINATION,RA_OF_ASC_NODE,ARG_OF_PERICENTER,MEAN_ANOMALY,EPHEMERIS_TYPE,CLASSIFICATION_TYPE,NORAD_CAT_ID,ELEMENT_SET_NO,REV_AT_EPOCH,BSTAR,MEAN_MOTION_DOT,MEAN_MOTION_DDOT
SKYSAT-C1,2016-040C,2026-07-20T00:54:58.742496,15.36795530,.00005921,96.9553,230.9857,200.8282,159.2940,0,U,41601,999,56291,.13865095E-3,.491E-4,0
LAPAN-A3,2016-040E,2026-07-20T06:43:58.592928,15.33296666,.00083204,97.1508,196.3462,253.6624,106.3704,0,U,41603,999,55988,.58506003E-4,.1809E-4,0
GAOFEN-3,2016-049A,2026-07-20T07:35:02.863968,14.42219049,.00017878,98.4022,208.6029,82.8543,277.2850,0,U,41727,999,52342,.26526004E-4,.44E-6,0
SKYSAT-C4,2016-058B,2026-07-20T00:25:57.652896,15.49535299,.00035559,96.9171,221.4354,111.3811,248.7822,0,U,41771,999,55055,.18874633E-3,.10322E-3,0
SKYSAT-C5,2016-058C,2026-07-20T02:30:27.849600,15.33757415,.00030674,97.0452,240.2632,148.6501,211.4926,0,U,41772,999,54879,.12169705E-3,.3899E-4,0
SKYSAT-C2,2016-058D,2026-07-20T00:30:42.511104,15.42746945,.00008112,97.0163,221.8941,320.8207,39.2982,0,U,41773,999,55011,.16309524E-3,.7045E-4,0
SKYSAT-C3,2016-058E,2026-07-20T01:32:43.850688,15.53846132,.00027191,96.8998,230.6733,127.1966,232.9537,0,U,41774,999,55121,.22690805E-3,.14503E-3,0
ALSAT-1B,2016-059C,2026-07-20T06:28:58.515744,14.72297056,.00106287,97.7759,208.6070,115.6226,244.6082,0,U,41785,999,52544,.52638518E-4,.286E-5,0
PATHFINDER 1,2016-059E,2026-07-19T23:56:12.962400,14.67696330,.00299463,97.8179,198.7949,101.1531,259.3044,0,U,41787,999,52452,.56634935E-4,.278E-5,0
SCATSAT 1,2016-059H,2026-07-20T03:33:52.367328,14.79594675,.00555459,98.1173,265.2524,140.8715,219.6533,0,U,41790,999,10646,.98240278E-4,.698E-5,0
GOKTURK 1A,2016-073A,2026-07-20T06:49:50.488032,14.62795794,.00014509,98.1201,95.4336,80.1072,280.0293,0,U,41875,999,51366,.69921349E-4,.31E-5,0
RESOURCESAT-2A,2016-074A,2026-07-20T06:59:28.282848,14.21608412,.00020734,98.7512,274.5231,16.7571,343.3674,0,U,41877,999,49900,-.13489964E-3,-.34E-5,0
CARTOSAT-2D,2017-008A,2026-07-20T06:54:23.930208,15.19306667,.00063981,97.4086,259.9722,125.1995,234.9839,0,U,41948,999,52260,.10639026E-3,.2179E-4,0
SENTINEL-2B,2017-013A,2026-07-20T06:49:35.455296,14.30815310,.00012219,98.5677,275.5901,95.0756,265.0567,0,U,42063,999,48937,-.70687071E-4,-.229E-5,0
CARTOSAT-2E,2017-036C,2026-07-20T07:20:07.609632,15.19275638,.00038735,97.4250,260.5589,171.7292,188.4008,0,U,42767,999,50317,.11031707E-3,.2259E-4,0
FORMOSAT-5,2017-049A,2026-07-20T05:22:42.996864,14.50908657,.00109802,98.2242,275.7982,348.1491,11.9444,0,U,42920,999,47146,.20264191E-4,.36E-6,0
SENTINEL-5P,2017-064A,2026-07-20T06:14:02.769792,14.19523773,.00011995,98.7929,143.1572,93.2254,266.9060,0,U,42969,999,45425,.2415486E-4,.7E-7,0
SKYSAT-C11,2017-068A,2026-07-19T23:46:00.166080,15.59495163,.00014542,97.4390,351.2973,153.1911,206.9421,0,U,42987,999,48835,.22209797E-3,.175E-3,0
SKYSAT-C10,2017-068B,2026-07-20T06:42:33.933024,15.35176950,.00015544,97.4544,338.4695,110.9574,249.1836,0,U,42988,999,48743,.17811011E-3,.5999E-4,0
SKYSAT-C9,2017-068C,2026-07-19T21:08:52.516896,15.42281891,.00082345,97.4468,339.3191,29.4444,330.7266,0,U,42989,999,48779,.16548829E-3,.7038E-4,0
SKYSAT-C8,2017-068D,2026-07-19T22:33:09.052704,15.37546198,.0001292,97.4562,338.0520,106.4658,253.6729,0,U,42990,999,48734,.1587989E-3,.5765E-4,0
SKYSAT-C7,2017-068E,2026-07-20T04:40:18.100416,15.37498493,.00052362,97.4573,339.3027,3.9934,356.1352,0,U,42991,999,48744,.15582317E-3,.5648E-4,0
SKYSAT-C6,2017-068F,2026-07-20T03:35:56.810112,15.34219330,.00049708,97.4611,339.0883,76.2150,283.9645,0,U,42992,999,48737,.15590287E-3,.5084E-4,0
CARTOSAT-2F,2018-004A,2026-07-20T06:32:30.998400,15.19193819,.00027743,97.4765,260.5807,126.1656,233.9836,0,U,43111,999,47235,.71018372E-4,.1426E-4,0
GAOFEN-1 02,2018-031A,2026-07-20T07:16:06.924288,14.76475071,.00015213,98.0504,263.7344,252.0725,108.0319,0,U,43259,999,44758,.1251404E-4,.36E-6,0
GAOFEN-1 03,2018-031B,2026-07-20T06:44:37.366656,14.76466462,.00019979,98.0500,263.5671,359.8971,0.2238,0,U,43260,999,44757,.54606205E-4,.328E-5,0
GAOFEN-1 04,2018-031D,2026-07-20T07:47:17.388384,14.76439856,.00009171,98.0506,263.8056,52.2486,307.8807,0,U,43262,999,44757,-.18090916E-4,-.177E-5,0
SENTINEL-3B,2018-039A,2026-07-20T03:37:03.853920,14.26737265,.00012512,98.6232,268.2072,118.9743,241.1563,0,U,43437,999,42882,.34871425E-4,.41E-6,0
GAOFEN-5 01,2018-043A,2026-07-19T22:39:16.631136,14.60625194,.00018105,98.4594,173.2227,21.7754,338.3522,0,U,43461,999,43647,.40450954E-4,.148E-5,0
GAOFEN-6,2018-048A,2026-07-20T06:42:29.626848,14.76387385,.00120044,98.0948,263.9933,67.4893,292.7586,0,U,43484,999,43827,.64465865E-4,.396E-5,0
